SAUDISAT 5B             
1 43833U 18102C   26141.92605736  .00003869  00000+0  14414-3 0  9997
2 43833  97.3182 207.0386 0009292 221.5783 138.4751 15.28013435411781
GAOFEN-10R              
1 44622U 19066A   26141.97518736  .00000761  00000+0  10039-3 0  9999
2 44622  98.0486  95.3669 0004614 210.1077 149.9872 14.82993741358493
CARTOSAT-3              
1 44804U 19081A   26141.94375339  .00001540  00000+0  76246-4 0  9994
2 44804  97.4312 204.2291 0011196 238.8210 121.1928 15.19238513359481
GAOFEN-12 01            
1 44819U 19082A   26141.99057495  .00000231  00000+0  36913-4 0  9999
2 44819  97.8106 149.0620 0002441 102.2952 257.8534 14.80433734350215
CSG-1                   
1 44873U 19092A   26141.92479259  .00000237  00000+0  36359-4 0  9999
2 44873  97.8887 325.9079 0001408  93.6383 266.4992 14.82158268347585
NEMO-HD                 
1 46277U 20061F   26141.95196126  .00007717  00000+0  17119-3 0  9991
2 46277  97.1930 204.1788 0002689 112.7048 247.4485 15.44000311317931
SENTINEL-6A             
1 46984U 20086A   26141.53965826 -.00000054  00000+0  30667-4 0  9990
2 46984  66.0398 190.4001 0007890 270.1516  89.8595 12.80931439256913
CAS500-1                
1 47932U 21022A   26141.93096517  .00004920  00000+0  23054-3 0  9997
2 47932  97.3923  37.7110 0006410  37.4867 322.6814 15.20142750286778
GAOFEN-12 02            
1 48079U 21026A   26141.93125161  .00000212  00000+0  34838-4 0  9995
2 48079  97.9921 140.2205 0004032 336.8648  23.2382 14.80272040277877
PLEIADES NEO 3          
1 48268U 21034A   26141.98301644  .00000850  00000+0  11456-3 0  9999
2 48268  97.8928 217.1259 0001501  94.9354 265.2030 14.81676065273779
PLEIADES NEO 4          
1 49070U 21073E   26141.94923972  .00000284  00000+0  42698-4 0  9998
2 49070  97.8926 217.0884 0001437  94.6010 265.5367 14.81676349257487
LANDSAT 9               
1 49260U 21088A   26141.75872508  .00000191  00000+0  52395-4 0  9994
2 49260  98.1855 212.3241 0001145  87.9207 272.2123 14.57115512247158
CSG-2                   
1 51444U 22008A   26141.95853713  .00000537  00000+0  74013-4 0  9998
2 51444  97.8886 325.9366 0001493  85.2048 274.9335 14.82154578232706
