
    {
        "ARG_OF_PERICENTER": 221.5783,
        "BSTAR": 0.0001441412,
        "CLASSIFICATION_TYPE": "U",
        "ECCENTRICITY": 0.0009292,
        "ELEMENT_SET_NO": 999,
        "EPHEMERIS_TYPE": 0,
        "EPOCH": "2026-05-21T22:13:31.355904",
        "INCLINATION": 97.3182,
        "MEAN_ANOMALY": 138.4751,
        "MEAN_MOTION": 15.28013435,
        "MEAN_MOTION_DDOT": 0,
        "MEAN_MOTION_DOT": 3.869e-05,
        "NORAD_CAT_ID": 43833,
        "OBJECT_ID": "2018-102C",
        "OBJECT_NAME": "SAUDISAT 5B",
        "RA_OF_ASC_NODE": 207.0386,
        "REV_AT_EPOCH": 41178
    },
    {
        "ARG_OF_PERICENTER": 210.1077,
        "BSTAR": 0.00010039048,
        "CLASSIFICATION_TYPE": "U",
        "ECCENTRICITY": 0.00046149,
        "ELEMENT_SET_NO": 999,
        "EPHEMERIS_TYPE": 0,
        "EPOCH": "2026-05-21T23:24:16.187904",
        "INCLINATION": 98.0486,
        "MEAN_ANOMALY": 149.9872,
        "MEAN_MOTION": 14.82993741,
        "MEAN_MOTION_DDOT": 0,
        "MEAN_MOTION_DOT": 7.61e-06,
        "NORAD_CAT_ID": 44622,
        "OBJECT_ID": "2019-066A",
        "OBJECT_NAME": "GAOFEN-10R",
        "RA_OF_ASC_NODE": 95.3669,
        "REV_AT_EPOCH": 35849
    },
    {
        "ARG_OF_PERICENTER": 238.821,
        "BSTAR": 7.6246399e-05,
        "CLASSIFICATION_TYPE": "U",
        "ECCENTRICITY": 0.00111965,
        "ELEMENT_SET_NO": 999,
        "EPHEMERIS_TYPE": 0,
        "EPOCH": "2026-05-21T22:39:00.292896",
        "INCLINATION": 97.4312,
        "MEAN_ANOMALY": 121.1928,
        "MEAN_MOTION": 15.19238513,
        "MEAN_MOTION_DDOT": 0,
        "MEAN_MOTION_DOT": 1.54e-05,
        "NORAD_CAT_ID": 44804,
        "OBJECT_ID": "2019-081A",
        "OBJECT_NAME": "CARTOSAT-3",
        "RA_OF_ASC_NODE": 204.2291,
        "REV_AT_EPOCH": 35948
    },
    {
        "ARG_OF_PERICENTER": 102.2952,
        "BSTAR": 3.6913124e-05,
        "CLASSIFICATION_TYPE": "U",
        "ECCENTRICITY": 0.00024414,
        "ELEMENT_SET_NO": 999,
        "EPHEMERIS_TYPE": 0,
        "EPOCH": "2026-05-21T23:46:25.675680",
        "INCLINATION": 97.8106,
        "MEAN_ANOMALY": 257.8534,
        "MEAN_MOTION": 14.80433734,
        "MEAN_MOTION_DDOT": 0,
        "MEAN_MOTION_DOT": 2.31e-06,
        "NORAD_CAT_ID": 44819,
        "OBJECT_ID": "2019-082A",
        "OBJECT_NAME": "GAOFEN-12 01",
        "RA_OF_ASC_NODE": 149.062,
        "REV_AT_EPOCH": 35021
    },
    {
        "ARG_OF_PERICENTER": 93.6383,
        "BSTAR": 3.6359456e-05,
        "CLASSIFICATION_TYPE": "U",
        "ECCENTRICITY": 0.00014084,
        "ELEMENT_SET_NO": 999,
        "EPHEMERIS_TYPE": 0,
        "EPOCH": "2026-05-21T22:11:42.079776",
        "INCLINATION": 97.8887,
        "MEAN_ANOMALY": 266.4992,
        "MEAN_MOTION": 14.82158268,
        "MEAN_MOTION_DDOT": 0,
        "MEAN_MOTION_DOT": 2.37e-06,
        "NORAD_CAT_ID": 44873,
        "OBJECT_ID": "2019-092A",
        "OBJECT_NAME": "CSG-1",
        "RA_OF_ASC_NODE": 325.9079,
        "REV_AT_EPOCH": 34758
    },
    {
        "ARG_OF_PERICENTER": 112.7048,
        "BSTAR": 0.00017119235,
        "CLASSIFICATION_TYPE": "U",
        "ECCENTRICITY": 0.00026897,
        "ELEMENT_SET_NO": 999,
        "EPHEMERIS_TYPE": 0,
        "EPOCH": "2026-05-21T22:50:49.452864",
        "INCLINATION": 97.193,
        "MEAN_ANOMALY": 247.4485,
        "MEAN_MOTION": 15.44000311,
        "MEAN_MOTION_DDOT": 0,
        "MEAN_MOTION_DOT": 7.717e-05,
        "NORAD_CAT_ID": 46277,
        "OBJECT_ID": "2020-061F",
        "OBJECT_NAME": "NEMO-HD",
        "RA_OF_ASC_NODE": 204.1788,
        "REV_AT_EPOCH": 31793
    },
    {
        "ARG_OF_PERICENTER": 270.1516,
        "BSTAR": 3.0666945e-05,
        "CLASSIFICATION_TYPE": "U",
        "ECCENTRICITY": 0.000789,
        "ELEMENT_SET_NO": 999,
        "EPHEMERIS_TYPE": 0,
        "EPOCH": "2026-05-21T12:57:06.473664",
        "INCLINATION": 66.0398,
        "MEAN_ANOMALY": 89.8595,
        "MEAN_MOTION": 12.80931439,
        "MEAN_MOTION_DDOT": 0,
        "MEAN_MOTION_DOT": -5.4e-07,
        "NORAD_CAT_ID": 46984,
        "OBJECT_ID": "2020-086A",
        "OBJECT_NAME": "SENTINEL-6A",
        "RA_OF_ASC_NODE": 190.4001,
        "REV_AT_EPOCH": 25691
    },
    {
        "ARG_OF_PERICENTER": 37.4867,
        "BSTAR": 0.00023053835,
        "CLASSIFICATION_TYPE": "U",
        "ECCENTRICITY": 0.00064103,
        "ELEMENT_SET_NO": 999,
        "EPHEMERIS_TYPE": 0,
        "EPOCH": "2026-05-21T22:20:35.390688",
        "INCLINATION": 97.3923,
        "MEAN_ANOMALY": 322.6814,
        "MEAN_MOTION": 15.2014275,
        "MEAN_MOTION_DDOT": 0,
        "MEAN_MOTION_DOT": 4.92e-05,
        "NORAD_CAT_ID": 47932,
        "OBJECT_ID": "2021-022A",
        "OBJECT_NAME": "CAS500-1",
        "RA_OF_ASC_NODE": 37.711,
        "REV_AT_EPOCH": 28677
    },
    {
        "ARG_OF_PERICENTER": 336.8648,
        "BSTAR": 3.4838376e-05,
        "CLASSIFICATION_TYPE": "U",
        "ECCENTRICITY": 0.00040322,
        "ELEMENT_SET_NO": 999,
        "EPHEMERIS_TYPE": 0,
        "EPOCH": "2026-05-21T22:21:00.139104",
        "INCLINATION": 97.9921,
        "MEAN_ANOMALY": 23.2382,
        "MEAN_MOTION": 14.8027204,
        "MEAN_MOTION_DDOT": 0,
        "MEAN_MOTION_DOT": 2.12e-06,
        "NORAD_CAT_ID": 48079,
        "OBJECT_ID": "2021-026A",
        "OBJECT_NAME": "GAOFEN-12 02",
        "RA_OF_ASC_NODE": 140.2205,
        "REV_AT_EPOCH": 27787
    },
    {
        "ARG_OF_PERICENTER": 94.9354,
        "BSTAR": 0.00011456103,
        "CLASSIFICATION_TYPE": "U",
        "ECCENTRICITY": 0.00015017,
        "ELEMENT_SET_NO": 999,
        "EPHEMERIS_TYPE": 0,
        "EPOCH": "2026-05-21T23:35:32.620416",
        "INCLINATION": 97.8928,
        "MEAN_ANOMALY": 265.203,
        "MEAN_MOTION": 14.81676065,
        "MEAN_MOTION_DDOT": 0,
        "MEAN_MOTION_DOT": 8.5e-06,
        "NORAD_CAT_ID": 48268,
        "OBJECT_ID": "2021-034A",
        "OBJECT_NAME": "PLEIADES NEO 3",
        "RA_OF_ASC_NODE": 217.1259,
        "REV_AT_EPOCH": 27377
    },
    {
        "ARG_OF_PERICENTER": 94.601,
        "BSTAR": 4.2697665e-05,
        "CLASSIFICATION_TYPE": "U",
        "ECCENTRICITY": 0.00014375,
        "ELEMENT_SET_NO": 999,
        "EPHEMERIS_TYPE": 0,
        "EPOCH": "2026-05-21T22:46:54.311808",
        "INCLINATION": 97.8926,
        "MEAN_ANOMALY": 265.5367,
        "MEAN_MOTION": 14.81676349,
        "MEAN_MOTION_DDOT": 0,
        "MEAN_MOTION_DOT": 2.84e-06,
        "NORAD_CAT_ID": 49070,
        "OBJECT_ID": "2021-073E",
        "OBJECT_NAME": "PLEIADES NEO 4",
        "RA_OF_ASC_NODE": 217.0884,
        "REV_AT_EPOCH": 25748
    },
    {
        "ARG_OF_PERICENTER": 87.9207,
        "BSTAR": 5.2395444e-05,
        "CLASSIFICATION_TYPE": "U",
        "ECCENTRICITY": 0.00011456,
        "ELEMENT_SET_NO": 999,
        "EPHEMERIS_TYPE": 0,
        "EPOCH": "2026-05-21T18:12:33.846912",
        "INCLINATION": 98.1855,
        "MEAN_ANOMALY": 272.2123,
        "MEAN_MOTION": 14.57115512,
        "MEAN_MOTION_DDOT": 0,
        "MEAN_MOTION_DOT": 1.91e-06,
        "NORAD_CAT_ID": 49260,
        "OBJECT_ID": "2021-088A",
        "OBJECT_NAME": "LANDSAT 9",
        "RA_OF_ASC_NODE": 212.3241,
        "REV_AT_EPOCH": 24715
    },
    {
        "ARG_OF_PERICENTER": 85.2048,
        "BSTAR": 7.4013385e-05,
        "CLASSIFICATION_TYPE": "U",
        "ECCENTRICITY": 0.00014937,
        "ELEMENT_SET_NO": 999,
        "EPHEMERIS_TYPE": 0,
        "EPOCH": "2026-05-21T23:00:17.608032",
        "INCLINATION": 97.8886,
        "MEAN_ANOMALY": 274.9335,
        "MEAN_MOTION": 14.82154578,
        "MEAN_MOTION_DDOT": 0,
        "MEAN_MOTION_DOT": 5.37e-06,
        "NORAD_CAT_ID": 51444,
        "OBJECT_ID": "2022-008A",
        "OBJECT_NAME": "CSG-2",
        "RA_OF_ASC_NODE": 325.9366,
        "REV_AT_EPOCH": 23270
    }